NORAD_CAT_ID,OBJECT_NAME,OBJECT_TYPE,EPOCH,MEAN_MOTION,ECCENTRICITY,INCLINATION,RA_OF_ASC_NODE,ARG_OF_PERICENTER,MEAN_ANOMALY,BSTAR,MEAN_MOTION_DOT,MEAN_MOTION_DDOT,TLE_LINE0,TLE_LINE1,TLE_LINE2,SEMIMAJOR_AXIS,PERIOD,APOGEE,PERIGEE,DECAYED
51717.0,STARLINK-3445,PAYLOAD,2022-09-15 06:00:00,15.08843248,0.000197,53.2144,276.8494,38.9384,259.5993,-0.0010993,-0.00017743,0.0,0 STARLINK-3445,1 51717U 22016D   22258.25001157 -.00017743  00000-0 -10993-2 0  9990,2 51717  53.2144 276.8494 0001970  38.9384 259.5993 15.08843248 32611,6917.87,95.437,541.0980000000002,538.373,0.0
51717.0,STARLINK-3445,PAYLOAD,2022-09-15 14:00:01,15.08838554,0.0002070999999999,53.2143,275.3535,35.7259,274.4016,0.00087859,0.00013722,0.0,0 STARLINK-3445,1 51717U 22016D   22258.58334491  .00013722  00000-0  87859-3 0  9993,2 51717  53.2143 275.3535 0002071  35.7259 274.4016 15.08838554  1307,6917.885,95.438,541.183,538.317,0.0
51717.0,STARLINK-3445,PAYLOAD,2022-09-15 16:00:00,15.08856825,0.0002044999999999,53.2145,274.9788,36.8568,6.1653,-0.001406,-0.00022606,0.0,0 STARLINK-3445,1 51717U 22016D   22258.66667824 -.00022606  00000-0 -14060-2 0  9997,2 51717  53.2145 274.9788 0002045  36.8568   6.1653 15.08856825  1308,6917.829000000002,95.436,541.109,538.279,0.0
51717.0,STARLINK-3445,PAYLOAD,2022-09-15 22:10:11,15.08841456,0.000196,53.2157,273.8252,41.6585,318.4557,0.00011639,1.565e-05,0.0,0 STARLINK-3445,1 51717U 22016D   22258.92374065  .00001565  00000-0  11639-3 0  9997,2 51717  53.2157 273.8252 0001960  41.6585 318.4557 15.08841456 32718,6917.876,95.437,541.097,538.385,0.0
51717.0,STARLINK-3445,PAYLOAD,2022-09-16 07:42:29,15.08847084,0.0002002,53.2156,272.0408,40.6332,319.481,0.00014224,1.977e-05,0.0,0 STARLINK-3445,1 51717U 22016D   22259.32117606  .00001977  00000-0  14224-3 0  9998,2 51717  53.2156 272.0408 0002002  40.6332 319.4810 15.08847084 31645,6917.859,95.437,541.109,538.339,0.0
51717.0,STARLINK-3445,PAYLOAD,2022-09-17 04:22:30,15.08838768,0.0001689,53.2155,268.1737,48.9866,311.1272,4.6084e-05,4.45e-06,0.0,0 STARLINK-3445,1 51717U 22016D   22260.18230063  .00000445  00000-0  46084-4 0  9996,2 51717  53.2155 268.1737 0001689  48.9866 311.1272 15.08838768 32908,6917.884,95.438,540.918,538.581,0.0
51717.0,STARLINK-3445,PAYLOAD,2022-09-17 07:33:17,15.08827426,0.0001841999999999,53.2158,267.58,46.2078,313.9067,-4.6904e-05,-1.034e-05,0.0,0 STARLINK-3445,1 51717U 22016D   22260.31479082 -.00001034  00000-0 -46904-4 0  9995,2 51717  53.2158 267.5800 0001842  46.2078 313.9067 15.08827426 32925,6917.919,95.438,541.058,538.51,0.0
51717.0,STARLINK-3445,PAYLOAD,2022-09-17 17:05:36,15.08827102,0.0001904,53.2154,265.7958,44.085,316.0294,-1.034e-05,-4.53e-06,0.0,0 STARLINK-3445,1 51717U 22016D   22260.71223339 -.00000453  00000-0 -10340-4 0  9990,2 51717  53.2154 265.7958 0001904  44.0850 316.0294 15.08827102 31856,6917.92,95.438,541.102,538.4680000000002,0.0
51717.0,STARLINK-3445,PAYLOAD,2022-09-18 07:24:05,15.08834919,0.0002000999999999,53.2153,263.1195,44.1767,315.9384,1.67e-06,-2.62e-06,0.0,0 STARLINK-3445,1 51717U 22016D   22261.30839171 -.00000262  00000-0  16700-5 0  9997,2 51717  53.2153 263.1195 0002001  44.1767 315.9384 15.08834919 31949,6917.896,95.438,541.145,538.377,0.0
51717.0,STARLINK-3445,PAYLOAD,2022-09-19 04:04:05,15.0885152,0.0001942,53.2154,259.2531,43.3502,316.7643,-7.474e-05,-1.478e-05,0.0,0 STARLINK-3445,1 51717U 22016D   22262.16950583 -.00001478  00000-0 -74740-4 0  9991,2 51717  53.2154 259.2531 0001942  43.3502 316.7643 15.08851520 33206,6917.845,95.437,541.054,538.367,0.0
51717.0,STARLINK-3445,PAYLOAD,2022-09-19 08:50:14,15.08846851,0.000199,53.2147,258.3614,46.9076,313.2083,8.231e-05,1.022e-05,0.0,0 STARLINK-3445,1 51717U 22016D   22262.36822613  .00001022  00000-0  82310-4 0  9990,2 51717  53.2147 258.3614 0001990  46.9076 313.2083 15.08846851 32107,6917.859,95.437,541.101,538.3480000000002,0.0
51717.0,STARLINK-3445,PAYLOAD,2022-09-20 08:41:02,15.08842069,0.0002117,53.214,253.9001,46.518,313.5988,0.00012517,1.705e-05,0.0,0 STARLINK-3445,1 51717U 22016D   22263.36182944  .00001705  00000-0  12517-3 0  9996,2 51717  53.2140 253.9001 0002117  46.5180 313.5988 15.08842069 33380,6917.874,95.437,541.2040000000002,538.275,0.0
51717.0,STARLINK-3445,PAYLOAD,2022-09-20 16:37:57,15.08843872,0.0002106,53.2141,252.413,46.9823,313.1345,0.0001153,1.547e-05,0.0,0 STARLINK-3445,1 51717U 22016D   22263.69302803  .00001547  00000-0  11530-3 0  9998,2 51717  53.2141 252.4130 0002106  46.9823 313.1345 15.08843872 32301,6917.869000000002,95.437,541.19,538.2769999999998,0.0
51717.0,STARLINK-3445,PAYLOAD,2022-09-21 05:21:02,15.08855192,0.0002078,53.2139,250.0338,47.2765,312.8402,0.00017581,2.512e-05,0.0,0 STARLINK-3445,1 51717U 22016D   22264.22293993  .00002512  00000-0  17581-3 0  9992,2 51717  53.2139 250.0338 0002078  47.2765 312.8402 15.08855192 33511,6917.834,95.437,541.136,538.261,0.0
51717.0,STARLINK-3445,PAYLOAD,2022-09-21 10:07:11,15.08842679,0.0002106,53.214,249.144,45.1545,314.9618,6.4625e-06,-1.85e-06,0.0,0 STARLINK-3445,1 51717U 22016D   22264.42166607 -.00000185  00000-0  64625-5 0  9993,2 51717  53.2140 249.1440 0002106  45.1545 314.9618 15.08842679 32417,6917.871999999999,95.437,541.194,538.28,0.0
51717.0,STARLINK-3445,PAYLOAD,2022-09-22 09:57:58,15.08848453,0.0002094,53.2144,244.6816,46.0572,314.0592,0.00017107,2.436e-05,0.0,0 STARLINK-3445,1 51717U 22016D   22265.41526240  .00002436  00000-0  17107-3 0  9997,2 51717  53.2144 244.6816 0002094  46.0572 314.0592 15.08848453 32568,6917.855,95.437,541.168,538.271,0.0
51717.0,STARLINK-3445,PAYLOAD,2022-09-23 05:02:36,15.08842936,0.0002151999999999,53.2145,241.1133,46.4955,313.6215,5.6891e-05,6.17e-06,0.0,0 STARLINK-3445,1 51717U 22016D   22266.21014623  .00000617  00000-0  56891-4 0  9996,2 51717  53.2145 241.1133 0002152  46.4955 313.6215 15.08842936 33813,6917.871,95.437,541.225,538.248,0.0
51717.0,STARLINK-3445,PAYLOAD,2022-09-23 19:21:04,15.08849121,0.0002108,53.2147,238.4368,47.4692,312.6477,0.00025171,3.721e-05,0.0,0 STARLINK-3445,1 51717U 22016D   22266.80630286  .00003721  00000-0  25171-3 0  9995,2 51717  53.2147 238.4368 0002108  47.4692 312.6477 15.08849121 32770,6917.853,95.437,541.1759999999998,538.259,0.0
51717.0,STARLINK-3445,PAYLOAD,2022-09-24 04:53:23,15.08842872,0.0002049,53.2151,236.6535,50.1215,309.9957,8.400700000000001e-05,1.049e-05,0.0,0 STARLINK-3445,1 51717U 22016D   22267.20374472  .00001049  00000-0  84007-4 0  9997,2 51717  53.2151 236.6535 0002049  50.1215 309.9957 15.08842872 32832,6917.871999999999,95.437,541.154,538.319,0.0
51717.0,STARLINK-3445,PAYLOAD,2022-09-24 17:36:28,15.08848126,0.0002379999999999,53.2152,234.2748,44.9487,315.1698,0.00015954,2.252e-05,0.0,0 STARLINK-3445,1 51717U 22016D   22267.73366189  .00002252  00000-0  15954-3 0  9992,2 51717  53.2152 234.2748 0002380  44.9487 315.1698 15.08848126 34047,6917.856,95.437,541.367,538.0740000000002,0.0
51717.0,STARLINK-3445,PAYLOAD,2022-09-25 04:44:10,15.08840069,0.0002125,53.2151,232.1926,46.4243,313.6926,6.564199999999999e-05,7.57e-06,0.0,0 STARLINK-3445,1 51717U 22016D   22268.19734554  .00000757  00000-0  65642-4 0  9996,2 51717  53.2151 232.1926 0002125  46.4243 313.6926 15.08840069 34118,6917.88,95.438,541.215,538.275,0.0
51717.0,STARLINK-3445,PAYLOAD,2022-09-25 09:30:19,15.08843392,0.0002144,53.215,231.3003,45.4145,314.7021,7.3386e-05,8.8e-06,0.0,0 STARLINK-3445,1 51717U 22016D   22268.39606291  .00000880  00000-0  73386-4 0  9995,2 51717  53.2150 231.3003 0002144  45.4145 314.7021 15.08843392 33013,6917.87,95.437,541.2180000000002,538.252,0.0
51717.0,STARLINK-3445,PAYLOAD,2022-09-26 07:45:44,15.08838438,0.0002097,53.2159,227.1373,46.7504,313.3663,-4.7768e-05,-1.048e-05,0.0,0 STARLINK-3445,1 51717U 22016D   22269.32343102 -.00001048  00000-0 -47768-4 0  9992,2 51717  53.2159 227.1373 0002097  46.7504 313.3663 15.08838438 34287,6917.885,95.438,541.201,538.299,0.0
51717.0,STARLINK-3445,PAYLOAD,2022-09-26 09:21:07,15.08839436,0.0002213,53.2158,226.8397,44.9256,315.1915,-4.9454e-05,-1.075e-05,0.0,0 STARLINK-3445,1 51717U 22016D   22269.38967075 -.00001075  00000-0 -49454-4 0  9993,2 51717  53.2158 226.8397 0002213  44.9256 315.1915 15.08839436 33167,6917.882,95.438,541.278,538.216,0.0
51717.0,STARLINK-3445,PAYLOAD,2022-09-27 09:11:55,15.08834082,0.0001982,53.2159,222.379,45.5815,314.5339,4.5538e-05,4.37e-06,0.0,0 STARLINK-3445,1 51717U 22016D   22270.38327657  .00000437  00000-0  45538-4 0  9999,2 51717  53.2159 222.3790 0001982  45.5815 314.5339 15.08834082 33318,6917.898,95.438,541.135,538.3919999999998,0.0
51717.0,STARLINK-3445,PAYLOAD,2022-09-28 04:16:31,15.08852466,0.000197,53.2159,218.8106,44.5502,315.5648,0.00024322,3.586e-05,0.0,0 STARLINK-3445,1 51717U 22016D   22271.17814178  .00003586  00000-0  24322-3 0  9991,2 51717  53.2159 218.8106 0001970  44.5502 315.5648 15.08852466 34566,6917.842,95.437,541.07,538.344,0.0
51717.0,STARLINK-3445,PAYLOAD,2022-09-28 05:51:54,15.08856302,0.0001971,53.2159,218.5132,44.6466,315.4685,0.00028341,4.227e-05,0.0,0 STARLINK-3445,1 51717U 22016D   22271.24437919  .00004227  00000-0  28341-3 0  9991,2 51717  53.2159 218.5132 0001971  44.6466 315.4685 15.08856302 33442,6917.831,95.437,541.059,538.332,0.0
51717.0,STARLINK-3445,PAYLOAD,2022-09-28 20:10:22,15.08851714,0.0001996,53.2153,215.8367,45.0402,315.0751,0.00022958,3.369e-05,0.0,0 STARLINK-3445,1 51717U 22016D   22271.84054331  .00003369  00000-0  22958-3 0  9994,2 51717  53.2153 215.8367 0001996  45.0402 315.0751 15.08851714 33530,6917.845,95.437,541.09,538.3290000000002,0.0
51717.0,STARLINK-3445,PAYLOAD,2022-09-29 02:31:56,15.08835485,0.0001921,53.2154,214.6473,38.2553,321.8576,1.5586e-05,-4e-07,0.0,0 STARLINK-3445,1 51717U 22016D   22272.10551136 -.00000040  00000-0  15586-4 0  9993,2 51717  53.2154 214.6473 0001921  38.2553 321.8576 15.08835485 34702,6917.894,95.438,541.0880000000002,538.43,0.0
